YAOGAN-36 04C           
1 54750U 22171E   26068.78871400  .00016196  00000+0  54592-3 0  9991
2 54750  34.9797  96.6578 0006685 275.3761  84.6192 15.29852307180246
STARLINK-35697          
1 66539U 25265Z   26067.63642160  .00048671  00000+0  17651-2 0  9995
2 66539  43.0008 283.7659 0000519 280.3010  79.7783 15.27606942 16959
