[{"OBJECT_NAME":"YAOGAN-36 04C","OBJECT_ID":"2022-171E","EPOCH":"2026-03-09T18:55:44.889600","MEAN_MOTION":15.29852307,"ECCENTRICITY":0.00066848,"INCLINATION":34.9797,"RA_OF_ASC_NODE":96.6578,"ARG_OF_PERICENTER":275.3761,"MEAN_ANOMALY":84.6192,"EPHEMERIS_TYPE":0,"CLASSIFICATION_TYPE":"U","NORAD_CAT_ID":54750,"ELEMENT_SET_NO":999,"REV_AT_EPOCH":18024,"BSTAR":0.00054591902,"MEAN_MOTION_DOT":0.00016196,"MEAN_MOTION_DDOT":0},{"OBJECT_NAME":"STARLINK-35697","OBJECT_ID":"2025-265Z","EPOCH":"2026-03-08T15:16:26.826240","MEAN_MOTION":15.27606942,"ECCENTRICITY":5.195e-5,"INCLINATION":43.0008,"RA_OF_ASC_NODE":283.7659,"ARG_OF_PERICENTER":280.301,"MEAN_ANOMALY":79.7783,"EPHEMERIS_TYPE":0,"CLASSIFICATION_TYPE":"U","NORAD_CAT_ID":66539,"ELEMENT_SET_NO":999,"REV_AT_EPOCH":1695,"BSTAR":0.0017651219,"MEAN_MOTION_DOT":0.00048671,"MEAN_MOTION_DDOT":0}]
